CUTE-1 (CO-55)          
1 27844U 03031E   21309.94409827  .00000147  00000-0  85554-4 0  9993
2 27844  98.6814 316.0195 0010445  34.6577 325.5280 14.22347204952093
CUBESAT XI-IV (CO-57)   
1 27848U 03031J   21309.83883365  .00000117  00000-0  72718-4 0  9993
2 27848  98.6867 316.4697 0010526  47.8067 312.4002 14.21919201951903
CUBESAT XI-V            
1 28895U 05043F   21309.84020833  .00000516  00000-0  10719-3 0  9990
2 28895  98.0789  80.1570 0017855 123.2983 236.9933 14.63998296854694
CUTE-1.7+APD II (CO-65) 
1 32785U 08021C   21309.33946310  .00001122  00000-0  12521-3 0  9990
2 32785  97.6289 282.8489 0011387 255.2339 104.7617 14.88877331733131
AAUSAT-II               
1 32788U 08021F   21309.71303508  .00002766  00000-0  25179-3 0  9999
2 32788  97.5153 298.5496 0012443 148.7998 211.3965 14.95909022734971
DELFI-C3 (DO-64)        
1 32789U 08021G   21309.89200481  .00006757  00000-0  42114-3 0  9997
2 32789  97.3638 339.7798 0011931  24.3902 335.7890 15.09802508738166
SEEDS II (CO-66)        
1 32791U 08021J   21309.38151479  .00001558  00000-0  16035-3 0  9993
2 32791  97.5869 288.6523 0012136 211.4579 148.5916 14.91628623733788
SWISSCUBE               
1 35932U 09051B   21309.79722806  .00000407  00000-0  10236-3 0  9999
2 35932  98.5897 154.1992 0008019  21.7737 338.3799 14.56609037643530
BEESAT-1                
1 35933U 09051C   21309.82639637  .00000353  00000-0  90089-4 0  9998
2 35933  98.5849 155.9890 0006423  35.4656 324.6967 14.56657584643617
ITUPSAT1                
1 35935U 09051E   21309.84626100  .00000327  00000-0  85834-4 0  9996
2 35935  98.5951 156.1180 0008761  35.0192 325.1579 14.55784414643343
TISAT 1                 
1 36799U 10035E   21309.50474102  .00001775  00000-0  18110-3 0  9995
2 36799  98.1989 146.0302 0013199 108.9083 251.3567 14.91957273614365
M-CUBED & EXP-1 PRIME   
1 37855U 11061F   21309.93992304  .00008464  00000-0  40141-3 0  9996
2 37855 101.7231 306.8951 0164166   9.6740 350.7571 15.08610549547505
AEROCUBE 4.5A           
1 38767U 12048K   21309.79450502  .00002027  00000-0  16042-3 0  9990
2 38767  64.6656  92.1700 0169342 324.1819  34.8028 14.93180237117370
AEROCUBE 4.5B           
1 38768U 12048L   21309.71869441  .00003610  00000-0  25217-3 0  9992
2 38768  64.6687  51.6298 0160593 319.0745  39.8401 14.97177212117639
STRAND-1                
1 39090U 13009E   21309.79420149  .00000104  00000-0  51346-4 0  9993
2 39090  98.4157 148.5970 0008416 212.2025 147.8648 14.35197855455318
SOMP                    
1 39134U 13015E   21309.75515317  .00008808  00000-0  37200-3 0  9998
2 39134  64.8643  72.6680 0022568 312.9212  47.0022 15.23589664472732
BEESAT-3                
1 39135U 13015F   21309.86374589  .00005958  00000-0  28164-3 0  9997
2 39135  64.8668 103.8961 0020800 325.3147  34.6622 15.20152414472094
BEESAT-2                
1 39136U 13015G   21309.85801492  .00006175  00000-0  29835-3 0  9993
2 39136  64.8743 110.9132 0014212 244.9466 115.0186 15.19447466471919
NEE-01 PEGASO           
1 39151U 13018B   21309.82459511  .00000752  00000-0  10518-3 0  9994
2 39151  97.9855  51.5069 0015650 259.0634 100.8817 14.80456685460581
ESTCUBE 1               
1 39161U 13021C   21309.75579755 -.00000192  00000-0 -22440-4 0  9992
2 39161  97.9327  27.6407 0010670  62.6959 297.5321 14.72570023456540
POPACS 1                
1 39268U 13055D   21309.80545993  .00016760  00000-0  44120-3 0  9994
2 39268  80.9951 118.8958 0594456 152.7612 210.6137 14.44888525420958
POPACS 2                
1 39269U 13055E   21309.87050312  .00006110  00000-0  17386-3 0  9990
2 39269  81.0130 169.3690 0661908 283.6357  69.1990 14.29078055418213
POPACS 3                
1 39270U 13055F   21309.71633393  .00008288  00000-0  25482-3 0  9995
2 39270  81.0179 198.6183 0700680   6.8401 354.1739 14.19178963396879
ZACUBE-1 (TSHEPISOSAT)  
1 39417U 13066B   21309.87275428  .00001084  00000-0  13998-3 0  9994
2 39417  97.6093 286.9963 0059811  58.3212 302.3815 14.81660248430018
WNISAT-1                
1 39423U 13066H   21309.95491213  .00000287  00000-0  65629-4 0  9995
2 39423  97.7765 202.5274 0176223 115.4328 246.5313 14.53273234421994
TRITON-1                
1 39427U 13066M   21309.78991680  .00000828  00000-0  13879-3 0  9993
2 39427  97.7896 250.7193 0111599 259.3380  99.5242 14.68383141425951
DELFI-N3XT              
1 39428U 13066N   21309.84394672  .00001485  00000-0  24040-3 0  9991
2 39428  97.7931 249.2685 0117904 272.5309  86.2404 14.68235039425714
GOMX-1                  
1 39430U 13066Q   21309.95127144  .00001993  00000-0  36485-3 0  9994
2 39430  97.8126 224.8814 0151227  29.6528 331.3120 14.59729935423683
CUBEBUG-2 (LO-74)       
1 39440U 13066AA  21309.83756437  .00000753  00000-0  10991-3 0  9992
2 39440  97.6955 272.3449 0080609 136.0539 224.7120 14.76375175427281
NEE-02 KRYSAOR          
1 39441U 13066AB  21309.86678386  .00000520  00000-0  79986-4 0  9994
2 39441  97.7055 269.6573 0082032 147.8366 212.7886 14.75279619427068
FUNCUBE-1 (AO-73)       
1 39444U 13066AE  21309.90414698  .00001353  00000-0  16947-3 0  9998
2 39444  97.5990 289.4119 0058692  48.0206 312.5987 14.82598286428393
UWE-3                   
1 39446U 13066AG  21309.83828105  .00000930  00000-0  12762-3 0  9995
2 39446  97.6554 279.1226 0070972  98.1255 262.8015 14.78917971427403
AEROCUBE 5A             
1 39465U 13072D   21309.80088942  .00020777  00000-0  14347-2 0  9998
2 39465 120.4927 206.1085 0250469  46.7462 315.4214 14.83837485116303
AEROCUBE 5B             
1 39466U 13072E   21309.77512802  .00036442  00000-0  19644-2 0  9993
2 39466 120.4694 272.6505 0214278  61.7906 300.4620 14.96986980117055
BRITE-CA1 (TORONTO)     
1 40020U 14033L   21309.88503211  .00000351  00000-0  68157-4 0  9990
2 40020  97.7543 115.6264 0085866 256.4351 102.7278 14.66793202394886
DUCHIFAT-1              
1 40021U 14033M   21309.82654606  .00001813  00000-0  18622-3 0  9995
2 40021  97.9853 251.6143 0014063  61.0055 299.2570 14.91605446401350
NANOSATC-BR1            
1 40024U 14033Q   21309.81205545  .00001495  00000-0  15820-3 0  9994
2 40024  97.9615 246.0473 0013478  66.6707 293.5927 14.90662455400654
QB50P1                  
1 40025U 14033R   21309.75954959  .00001483  00000-0  16093-3 0  9998
2 40025  97.9403 240.8632 0013789  74.9974 285.2769 14.89627134400455
QB50P2                  
1 40032U 14033Y   21309.77263383  .00001294  00000-0  14294-3 0  9993
2 40032  97.9214 237.0225 0013194  72.8504 287.4157 14.89122024400324
PERSEUS-M2              
1 40037U 14033AD  21309.75006098  .00000563  00000-0  69383-4 0  9992
2 40037  97.8892 228.3593 0015807  91.6847 268.6179 14.86750020399886
PERSEUS-M1              
1 40039U 14033AF  21309.75426005  .00000552  00000-0  68673-4 0  9997
2 40039  97.8817 226.5005 0015665  90.5448 269.7563 14.86368212399775
POLYITAN-1              
1 40042U 14033AJ  21309.76106046  .00002207  00000-0  23743-3 0  9999
2 40042  97.9501 241.8013 0015983  67.1200 293.1703 14.89470476400340
TIGRISAT                
1 40043U 14033AK  21309.80380929  .00000611  00000-0  96260-4 0  9991
2 40043  97.6615 146.1180 0060070 159.4861 200.8781 14.74625428396664
AEROCUBE 6A             
1 40045U 14033AM  21309.84300515  .00000941  00000-0  14033-3 0  9993
2 40045  97.6800 154.0542 0057967 148.5834 211.8860 14.75933559396794
AEROCUBE 6B             
1 40046U 14033AN  21309.84496007  .00001160  00000-0  17105-3 0  9993
2 40046  97.6699 152.7264 0057208 147.2236 213.2545 14.76016606396799
UKUBE-1                 
1 40074U 14037F   21309.78002020  .00003448  00000-0  41400-3 0  9995
2 40074  98.4087 173.4571 0003004 288.3706  71.7167 14.84715898396879
BRITE-PL2 (HEWELIUSZ)   
1 40119U 14049B   21309.82363975  .00000580  00000-0  74732-4 0  9991
2 40119  97.8883  42.8305 0016023 252.3327 107.6138 14.84740587390824
FIREBIRD 4              
1 40378U 15003C   21309.70930859  .00008526  00000-0  29589-3 0  9994
2 40378  99.1140 121.0040 0114536  59.1312 302.1126 15.24014857374294
GRIFEX                  
1 40379U 15003D   21309.74625880  .00007891  00000-0  30726-3 0  9993
2 40379  99.1132 109.1102 0126290  94.6111 266.9556 15.19190346373625
CP10 (EXOCUBE)          
1 40380U 15003E   21309.90061921  .00007028  00000-0  29036-3 0  9997
2 40380  99.1157 103.1250 0132203 114.6590 246.8472 15.16716896373240
TIANWANG 1A (TW-1A)     
1 40928U 15051D   21309.89128652  .00023915  00000-0  45488-3 0  9993
2 40928  97.0668 331.5025 0010755 125.8419 357.0696 15.48170258343555
EXACTVIEW 9             
1 40936U 15052G   21308.44049417  .00001634  00000-0  13841-3 0  9996
2 40936   6.0044 338.9374 0010806 213.0685 146.8766 14.76784176329930
AEROCUBE 5C             
1 40965U 15058B   21309.87409275  .00001248  00000-0  14785-3 0  9993
2 40965  64.7780  49.4542 0210142 268.1984  89.5043 14.74911449115981
AEROCUBE 7              
1 40966U 15058C   21309.73863041  .00001758  00000-0  19943-3 0  9991
2 40966  64.7797  47.5436 0208788 267.9048  89.8136 14.75301156115954
ATHENOXAT 1             
1 41168U 15077C   21309.19853057  .00008927  00000-0  40745-3 0  9992
2 41168  14.9866 305.6791 0010560 336.7821 108.6568 15.16566588326173
GALASSIA                
1 41170U 15077E   21309.61093543  .00007763  00000-0  34831-3 0  9994
2 41170  14.9893 293.0980 0011743  13.7718 346.2923 15.16693462326152
VELOX-II                
1 41171U 15077F   21309.47429293  .00006166  00000-0  30023-3 0  9999
2 41171  14.9927 357.2089 0008386 231.5007 128.4562 15.13107745325614
HORYU-4                 
1 41340U 16012D   21309.43947619  .00002258  00000-0  16097-3 0  9993
2 41340  31.0060 348.1700 0013622 133.2051 226.9725 15.02137883314005
E-ST@R-II               
1 41459U 16025D   21309.90231627  .00006951  00000-0  33392-3 0  9996
2 41459  98.1613  94.7987 0156058 305.7808  52.9002 15.09033843303744
